HAWK-11A                
1 62382U 24247F   26068.51231358  .00009457  00000+0  34106-3 0  9991
2 62382  44.9941 114.3328 0005466 327.3713  32.6832 15.28849427 67741
STARLINK-33758          
1 64004U 25101L   26067.83674913  .00044004  00000+0  15990-2 0  9992
2 64004  43.0012   2.8821 0000507 258.3313 101.7481 15.27581192 46928
